NORAD_CAT_ID,OBJECT_NAME,OBJECT_TYPE,EPOCH,MEAN_MOTION,ECCENTRICITY,INCLINATION,RA_OF_ASC_NODE,ARG_OF_PERICENTER,MEAN_ANOMALY,BSTAR,MEAN_MOTION_DOT,MEAN_MOTION_DDOT,TLE_LINE0,TLE_LINE1,TLE_LINE2,SEMIMAJOR_AXIS,PERIOD,APOGEE,PERIGEE,DECAYED
51986.0,STARLINK-3645,PAYLOAD,2023-09-08 02:27:07,15.08858562,7e-05,53.2173,180.2225,84.2252,275.882,-0.00034105,-5.714e-05,0.0,0 STARLINK-3645,1 51986U 22025AG  23251.10216550 -.00005714  00000-0 -34105-3 0  9998,2 51986  53.2173 180.2225 0000700  84.2252 275.8820 15.08858562 84239,6917.824,95.436,540.173,539.204,0.0
51986.0,STARLINK-3645,PAYLOAD,2023-09-08 04:02:30,15.088563,0.0001051,53.219,179.9249,92.3919,267.7194,-0.00025197,-4.297e-05,0.0,0 STARLINK-3645,1 51986U 22025AG  23251.16840362 -.00004297  00000-0 -25197-3 0  9994,2 51986  53.2190 179.9249 0001051  92.3919 267.7194 15.08856300 83151,6917.831,95.437,540.423,538.969,0.0
51986.0,STARLINK-3645,PAYLOAD,2023-09-09 05:28:39,15.08839951,0.0001257,53.2179,175.1671,90.1092,270.0044,0.00024528,3.618e-05,0.0,0 STARLINK-3645,1 51986U 22025AG  23252.22823869  .00003618  00000-0  24528-3 0  9996,2 51986  53.2179 175.1671 0001257  90.1092 270.0044 15.08839951 84404,6917.881,95.438,540.615,538.876,0.0
51986.0,STARLINK-3645,PAYLOAD,2023-09-09 11:50:12,15.08840414,9.86e-05,53.2183,173.9765,91.9042,268.2063,0.00015268,2.143e-05,0.0,0 STARLINK-3645,1 51986U 22025AG  23252.49320061  .00002143  00000-0  15268-3 0  9994,2 51986  53.2183 173.9765 0000986  91.9042 268.2063 15.08840414 83350,6917.879,95.438,540.426,539.062,0.0
51986.0,STARLINK-3645,PAYLOAD,2023-09-10 02:08:41,15.08843919,0.0001294,53.2185,171.3034,87.769,272.3451,3.4849e-05,2.67e-06,0.0,0 STARLINK-3645,1 51986U 22025AG  23253.08936459  .00000267  00000-0  34849-4 0  9996,2 51986  53.2185 171.3034 0001294  87.7690 272.3451 15.08843919 84539,6917.868,95.437,540.629,538.838,0.0
51986.0,STARLINK-3645,PAYLOAD,2023-09-10 03:44:04,15.08844607,0.0001299,53.2182,171.0054,84.1816,275.9324,3.475e-05,2.65e-06,0.0,0 STARLINK-3645,1 51986U 22025AG  23253.15560412  .00000265  00000-0  34750-4 0  9995,2 51986  53.2182 171.0054 0001299  84.1816 275.9324 15.08844607 83454,6917.866,95.437,540.63,538.833,0.0
51986.0,STARLINK-3645,PAYLOAD,2023-09-11 00:24:05,15.0884048,0.0001377,53.2187,167.1369,76.9133,283.2013,-5.649e-05,-1.187e-05,0.0,0 STARLINK-3645,1 51986U 22025AG  23254.01673013 -.00001187  00000-0 -56490-4 0  9994,2 51986  53.2187 167.1369 0001377  76.9133 283.2013 15.08840480 84679,6917.879,95.438,540.697,538.791,0.0
51986.0,STARLINK-3645,PAYLOAD,2023-09-11 11:31:46,15.08844564,0.0001325,53.2187,165.0549,88.2541,271.8603,1.0338e-05,-1.23e-06,0.0,0 STARLINK-3645,1 51986U 22025AG  23254.48040394 -.00000123  00000-0  10338-4 0  9994,2 51986  53.2187 165.0549 0001325  88.2541 271.8603 15.08844564 83650,6917.866,95.437,540.648,538.815,0.0
51986.0,STARLINK-3645,PAYLOAD,2023-09-12 03:25:37,15.08849873,0.0001262,53.2181,162.0813,101.0105,259.1029,5.9633e-05,6.62e-06,0.0,0 STARLINK-3645,1 51986U 22025AG  23255.14279791  .00000662  00000-0  59633-4 0  9991,2 51986  53.2181 162.0813 0001262 101.0105 259.1029 15.08849873 83755,6917.85,95.437,540.588,538.842,0.0
51986.0,STARLINK-3645,PAYLOAD,2023-09-12 20:54:52,15.08840566,0.0001116,53.2176,158.8118,90.6784,269.4336,3.0025e-05,1.9e-06,0.0,0 STARLINK-3645,1 51986U 22025AG  23255.87144598  .00000190  00000-0  30025-4 0  9997,2 51986  53.2176 158.8118 0001116  90.6784 269.4336 15.08840566 83861,6917.879,95.438,540.516,538.972,0.0
51986.0,STARLINK-3645,PAYLOAD,2023-09-13 00:05:38,15.08844834,0.000131,53.2173,158.2163,94.6239,265.4903,4.1123e-05,3.67e-06,0.0,0 STARLINK-3645,1 51986U 22025AG  23256.00392259  .00000367  00000-0  41123-4 0  9999,2 51986  53.2173 158.2163 0001310  94.6239 265.4903 15.08844834 84978,6917.866,95.437,540.637,538.824,0.0
51986.0,STARLINK-3645,PAYLOAD,2023-09-13 03:16:24,15.0884898,0.0001309,53.2176,157.6183,107.9375,252.176,8.7872e-05,1.111e-05,0.0,0 STARLINK-3645,1 51986U 22025AG  23256.13639737  .00001111  00000-0  87872-4 0  9997,2 51986  53.2176 157.6183 0001309 107.9375 252.1760 15.08848980 83905,6917.853,95.437,540.623,538.812,0.0
51986.0,STARLINK-3645,PAYLOAD,2023-09-13 17:34:54,15.08832551,0.0001136,53.2184,154.9451,83.6524,276.4597,-0.00010158,-1.904e-05,0.0,0 STARLINK-3645,1 51986U 22025AG  23256.73257516 -.00001904  00000-0 -10158-3 0  9998,2 51986  53.2184 154.9451 0001136  83.6524 276.4597 15.08832551 85081,6917.903,95.438,540.554,538.982,0.0
51986.0,STARLINK-3645,PAYLOAD,2023-09-13 20:45:40,15.08834469,0.0001342,53.217,154.3511,97.4899,262.6246,-8.6319e-05,-1.661e-05,0.0,0 STARLINK-3645,1 51986U 22025AG  23256.86505355 -.00001661  00000-0 -86319-4 0  9992,2 51986  53.2170 154.3511 0001342  97.4899 262.6246 15.08834469 84014,6917.897,95.438,540.691,538.834,0.0
51986.0,STARLINK-3645,PAYLOAD,2023-09-14 03:07:13,15.08831888,0.0001361,53.2177,153.1604,93.9748,266.14,-6.7837e-07,-2.99e-06,0.0,0 STARLINK-3645,1 51986U 22025AG  23257.13001355 -.00000299  00000-0 -67837-6 0  9996,2 51986  53.2177 153.1604 0001361  93.9748 266.1400 15.08831888 84053,6917.905,95.438,540.712,538.829,0.0
51986.0,STARLINK-3645,PAYLOAD,2023-09-14 20:36:27,15.08839058,0.0001233,53.2174,149.8898,103.9614,256.1516,-3.1103e-05,-7.83e-06,0.0,0 STARLINK-3645,1 51986U 22025AG  23257.85865278 -.00000783  00000-0 -31103-4 0  9990,2 51986  53.2174 149.8898 0001233 103.9614 256.1516 15.08839058 84165,6917.883,95.438,540.601,538.895,0.0
51986.0,STARLINK-3645,PAYLOAD,2023-09-15 01:22:36,15.08844981,0.0001253,53.2181,148.9985,98.3033,261.8101,3.0369e-05,1.96e-06,0.0,0 STARLINK-3645,1 51986U 22025AG  23258.05736783  .00000196  00000-0  30369-4 0  9990,2 51986  53.2181 148.9985 0001253  98.3033 261.8101 15.08844981 85282,6917.865,95.437,540.597,538.863,0.0
51986.0,STARLINK-3645,PAYLOAD,2023-09-15 02:57:59,15.08846474,0.0001485,53.2181,148.7004,115.6807,244.4339,5.2154e-05,5.42e-06,0.0,0 STARLINK-3645,1 51986U 22025AG  23258.12360620  .00000542  00000-0  52154-4 0  9992,2 51986  53.2181 148.7004 0001485 115.6807 244.4339 15.08846474 84201,6917.861,95.437,540.753,538.698,0.0
51986.0,STARLINK-3645,PAYLOAD,2023-09-15 23:38:00,15.0883881,0.0001252,53.2177,144.8348,98.4009,261.7125,0.000133,1.829e-05,0.0,0 STARLINK-3645,1 51986U 22025AG  23258.98473047  .00001829  00000-0  13300-3 0  9992,2 51986  53.2177 144.8348 0001252  98.4009 261.7125 15.08838810 85423,6917.884,95.438,540.615,538.883,0.0
51986.0,STARLINK-3645,PAYLOAD,2023-09-17 01:04:11,15.088416,0.000125,53.2178,140.0789,89.706,270.4075,2.042e-05,3.7e-07,0.0,0 STARLINK-3645,1 51986U 22025AG  23260.04457351  .00000037  00000-0  20420-4 0  9994,2 51986  53.2178 140.0789 0001250  89.7060 270.4075 15.08841600 85588,6917.875,95.437,540.605,538.876,0.0
51986.0,STARLINK-3645,PAYLOAD,2023-09-18 02:30:21,15.08812667,0.0001464,53.2171,135.3209,84.9987,275.1172,0.00058523,9.031e-05,0.0,0 STARLINK-3645,1 51986U 22025AG  23261.10441682  .00009031  00000-0  58523-3 0  9999,2 51986  53.2171 135.3209 0001464  84.9987 275.1172 15.08812667 85746,6917.964,95.439,540.842,538.816,0.0
51986.0,STARLINK-3645,PAYLOAD,2023-09-18 21:34:59,15.08837233,0.0001213,53.2169,131.7512,88.2349,271.8782,2.5554e-05,1.19e-06,0.0,0 STARLINK-3645,1 51986U 22025AG  23261.89929647  .00000119  00000-0  25554-4 0  9994,2 51986  53.2169 131.7512 0001213  88.2349 271.8782 15.08837233 84779,6917.889,95.438,540.593,538.915,0.0
51986.0,STARLINK-3645,PAYLOAD,2023-09-19 00:45:44,15.08847572,0.0001251,53.2174,131.1552,77.3248,282.7884,7.3919e-05,8.89e-06,0.0,0 STARLINK-3645,1 51986U 22025AG  23262.03176827  .00000889  00000-0  73919-4 0  9997,2 51986  53.2174 131.1552 0001251  77.3248 282.7884 15.08847572 85886,6917.857,95.437,540.588,538.857,0.0
51986.0,STARLINK-3645,PAYLOAD,2023-09-20 00:36:30,15.08860515,0.0001312,53.2171,126.697,84.9817,275.1325,0.00012652,1.727e-05,0.0,0 STARLINK-3645,1 51986U 22025AG  23263.02535424  .00001727  00000-0  12652-3 0  9997,2 51986  53.2171 126.6970 0001312  84.9817 275.1325 15.08860515 86036,6917.818,95.436,540.59,538.775,0.0
51986.0,STARLINK-3645,PAYLOAD,2023-09-20 18:05:47,15.08828227,0.0001338,53.2176,123.4281,81.3843,278.7301,-0.00015505,-2.754e-05,0.0,0 STARLINK-3645,1 51986U 22025AG  23263.75402640 -.00002754  00000-0 -15505-3 0  9993,2 51986  53.2176 123.4281 0001338  81.3843 278.7301 15.08828227 86148,6917.916,95.438,540.707,538.856,0.0
51986.0,STARLINK-3645,PAYLOAD,2023-09-20 19:41:11,15.08827756,0.00014,53.2171,123.1298,87.0376,273.0777,-0.00013999,-2.514e-05,0.0,0 STARLINK-3645,1 51986U 22025AG  23263.82026640 -.00002514  00000-0 -13999-3 0  9992,2 51986  53.2171 123.1298 0001400  87.0376 273.0777 15.08827756 85063,6917.918,95.438,540.751,538.814,0.0
51986.0,STARLINK-3645,PAYLOAD,2023-09-22 00:18:06,15.08845291,0.0001478,53.2167,117.7733,119.9296,240.1843,-2.4363e-05,-6.76e-06,0.0,0 STARLINK-3645,1 51986U 22025AG  23265.01257495 -.00000676  00000-0 -24363-4 0  9994,2 51986  53.2167 117.7733 0001478 119.9296 240.1843 15.08845291 86336,6917.864,95.437,540.752,538.707,0.0
51986.0,STARLINK-3645,PAYLOAD,2023-09-22 17:47:21,15.08837791,0.0001487,53.2165,114.5035,101.3966,258.7193,0.00025808,3.822e-05,0.0,0 STARLINK-3645,1 51986U 22025AG  23265.74121810  .00003822  00000-0  25808-3 0  9993,2 51986  53.2165 114.5035 0001487 101.3966 258.7193 15.08837791 86444,6917.887,95.438,540.781,538.723,0.0
51986.0,STARLINK-3645,PAYLOAD,2023-09-22 20:58:07,15.08842014,0.0001488,53.2166,113.9111,102.7579,257.358,0.00029619,4.429e-05,0.0,0 STARLINK-3645,1 51986U 22025AG  23265.87369637  .00004429  00000-0  29619-3 0  9996,2 51986  53.2166 113.9111 0001488 102.7579 257.3580 15.08842014 85379,6917.874,95.437,540.769,538.71,0.0
51986.0,STARLINK-3645,PAYLOAD,2023-09-23 00:08:53,15.08846603,0.0001483,53.2165,113.315,101.3554,258.7605,0.00034245,5.167e-05,0.0,0 STARLINK-3645,1 51986U 22025AG  23266.00617414  .00005167  00000-0  34245-3 0  9992,2 51986  53.2165 113.3150 0001483 101.3554 258.7605 15.08846603 86482,6917.86,95.437,540.751,538.699,0.0
